[{"OBJECT_NAME":"TOMORROW-S2","OBJECT_ID":"2024-149T","EPOCH":"2026-03-09T18:02:42.746496","MEAN_MOTION":15.30674935,"ECCENTRICITY":0.0001648,"INCLINATION":97.3857,"RA_OF_ASC_NODE":150.0385,"ARG_OF_PERICENTER":234.3331,"MEAN_ANOMALY":125.7757,"EPHEMERIS_TYPE":0,"CLASSIFICATION_TYPE":"U","NORAD_CAT_ID":60485,"ELEMENT_SET_NO":999,"REV_AT_EPOCH":8686,"BSTAR":0.00027683033,"MEAN_MOTION_DOT":8.133e-5,"MEAN_MOTION_DDOT":0},{"OBJECT_NAME":"STARLINK-35863","OBJECT_ID":"2025-303H","EPOCH":"2026-03-09T01:07:00.537600","MEAN_MOTION":15.2758932,"ECCENTRICITY":0.00015011,"INCLINATION":42.9985,"RA_OF_ASC_NODE":314.6176,"ARG_OF_PERICENTER":262.5934,"MEAN_ANOMALY":97.4747,"EPHEMERIS_TYPE":0,"CLASSIFICATION_TYPE":"U","NORAD_CAT_ID":67170,"ELEMENT_SET_NO":999,"REV_AT_EPOCH":1263,"BSTAR":0.0018938385,"MEAN_MOTION_DOT":0.00052237,"MEAN_MOTION_DDOT":0}]
